[{"OBJECT_NAME":"STARLINK-11311 [DTC]","OBJECT_ID":"2024-175L","EPOCH":"2026-03-09T08:52:55.815744","MEAN_MOTION":15.69704103,"ECCENTRICITY":0.00012218,"INCLINATION":53.1577,"RA_OF_ASC_NODE":58.0285,"ARG_OF_PERICENTER":96.7202,"MEAN_ANOMALY":263.3955,"EPHEMERIS_TYPE":0,"CLASSIFICATION_TYPE":"U","NORAD_CAT_ID":61253,"ELEMENT_SET_NO":999,"REV_AT_EPOCH":8452,"BSTAR":2.8220893e-5,"MEAN_MOTION_DOT":2.83e-5,"MEAN_MOTION_DDOT":0},{"OBJECT_NAME":"GFO","OBJECT_ID":"1998-007A","EPOCH":"2026-03-09T11:35:22.629120","MEAN_MOTION":15.65801864,"ECCENTRICITY":0.00488061,"INCLINATION":108.0178,"RA_OF_ASC_NODE":266.8886,"ARG_OF_PERICENTER":194.2539,"MEAN_ANOMALY":165.7295,"EPHEMERIS_TYPE":0,"CLASSIFICATION_TYPE":"U","NORAD_CAT_ID":25157,"ELEMENT_SET_NO":999,"REV_AT_EPOCH":51081,"BSTAR":0.00066525992,"MEAN_MOTION_DOT":0.00072245,"MEAN_MOTION_DDOT":0}]
